{"type": "FeatureCollection", "features": [ {"type": "Feature", "properties": {"norad_id": 34682, "name": "COSMOS 2251 DEB", "group": "cosmos-2251-debris", "lat": -58.47868204980037, "lon": -65.63182817170956, "alt_km": 691.562873005897, "timestamp": "2025-12-10T20:49:52.947544+00:00", "meta": {"OBJECT_NAME": "COSMOS 2251 DEB", "OBJECT_ID": "1993-036YC", "EPOCH": "2025-12-10T13:11:40.185024", "MEAN_MOTION": 14.58869859, "ECCENTRICITY": 0.00184229, "INCLINATION": 74.0396, "RA_OF_ASC_NODE": 87.1585, "ARG_OF_PERICENTER": 220.1622, "MEAN_ANOMALY": 151.6569, "EPHEMERIS_TYPE": 0, "CLASSIFICATION_TYPE": "U", "NORAD_CAT_ID": 34682, "ELEMENT_SET_NO": 999, "REV_AT_EPOCH": 88654, "BSTAR": 0.0013538862, "MEAN_MOTION_DOT": 6.33e-05, "MEAN_MOTION_DDOT": 0}, "tle": {"line1": "1 34682U 93036YC  25344.54977066  .00006330  00000+0  13539-2 0  9990", "line2": "2 34682  74.0396  87.1585 0018422 220.1622 151.6569 14.58869859886547"}}, "geometry": {"type": "Point", "coordinates": [-65.63182817170956, -58.47868204980037]}}, {"type": "Feature", "properties": {"norad_id": 34683, "name": "COSMOS 2251 DEB", "group": "cosmos-2251-debris", "lat": -2.6521043084999274, "lon": 95.10608295633187, "alt_km": 692.6641928221279, "timestamp": "2025-12-10T20:49:52.947554+00:00", "meta": {"OBJECT_NAME": "COSMOS 2251 DEB", "OBJECT_ID": "1993-036YD", "EPOCH": "2025-12-10T14:20:08.538720", "MEAN_MOTION": 14.64436522, "ECCENTRICITY": 0.00183493, "INCLINATION": 74.029, "RA_OF_ASC_NODE": 96.3863, "ARG_OF_PERICENTER": 211.2533, "MEAN_ANOMALY": 159.7007, "EPHEMERIS_TYPE": 0, "CLASSIFICATION_TYPE": "U", "NORAD_CAT_ID": 34683, "ELEMENT_SET_NO": 999, "REV_AT_EPOCH": 88317, "BSTAR": 0.0023070118, "MEAN_MOTION_DOT": 0.0001223, "MEAN_MOTION_DDOT": 0}, "tle": {"line1": "1 34683U 93036YD  25344.59732105  .00012230  00000+0  23070-2 0  9996", "line2": "2 34683  74.0290  96.3863 0018349 211.2533 159.7007 14.64436522883178"}}, "geometry": {"type": "Point", "coordinates": [95.10608295633187, -2.6521043084999274]}}, {"type": "Feature", "properties": {"norad_id": 34685, "name": "COSMOS 2251 DEB", "group": "cosmos-2251-debris", "lat": -14.274692941623893, "lon": -23.48007596521956, "alt_km": 700.7918550510994, "timestamp": "2025-12-10T20:49:52.947564+00:00", "meta": {"OBJECT_NAME": "COSMOS 2251 DEB", "OBJECT_ID": "1993-036YF", "EPOCH": "2025-12-10T11:50:31.867296", "MEAN_MOTION": 14.57472153, "ECCENTRICITY": 0.00143085, "INCLINATION": 74.0293, "RA_OF_ASC_NODE": 153.0533, "ARG_OF_PERICENTER": 257.1382, "MEAN_ANOMALY": 133.3302, "EPHEMERIS_TYPE": 0, "CLASSIFICATION_TYPE": "U", "NORAD_CAT_ID": 34685, "ELEMENT_SET_NO": 999, "REV_AT_EPOCH": 88499, "BSTAR": 0.0015653711, "MEAN_MOTION_DOT": 7.098e-05, "MEAN_MOTION_DDOT": 0}, "tle": {"line1": "1 34685U 93036YF  25344.49342439  .00007098  00000+0  15654-2 0  9999", "line2": "2 34685  74.0293 153.0533 0014308 257.1382 133.3302 14.57472153884999"}}, "geometry": {"type": "Point", "coordinates": [-23.48007596521956, -14.274692941623893]}}, {"type": "Feature", "properties": {"norad_id": 34689, "name": "COSMOS 2251 DEB", "group": "cosmos-2251-debris", "lat": 35.217085005746824, "lon": -121.73466956904275, "alt_km": 903.8220601146149, "timestamp": "2025-12-10T20:49:52.947574+00:00", "meta": {"OBJECT_NAME": "COSMOS 2251 DEB", "OBJECT_ID": "1993-036YK", "EPOCH": "2025-12-09T15:43:43.204224", "MEAN_MOTION": 14.04380278, "ECCENTRICITY": 0.022877, "INCLINATION": 74.0977, "RA_OF_ASC_NODE": 228.7634, "ARG_OF_PERICENTER": 298.3373, "MEAN_ANOMALY": 87.6678, "EPHEMERIS_TYPE": 0, "CLASSIFICATION_TYPE": "U", "NORAD_CAT_ID": 34689, "ELEMENT_SET_NO": 999, "REV_AT_EPOCH": 84298, "BSTAR": 0.0057121, "MEAN_MOTION_DOT": 0.00011476, "MEAN_MOTION_DDOT": 0}, "tle": {"line1": "1 34689U 93036YK  25343.65536116  .00011476  00000+0  57121-2 0  9997", "line2": "2 34689  74.0977 228.7634 0228770 298.3373  87.6678 14.04380278842989"}}, "geometry": {"type": "Point", "coordinates": [-121.73466956904275, 35.217085005746824]}}, {"type": "Feature", "properties": {"norad_id": 34721, "name": "COSMOS 2251 DEB", "group": "cosmos-2251-debris", "lat": 61.02455814018776, "lon": 118.11491350947911, "alt_km": 1044.7795279145002, "timestamp": "2025-12-10T20:49:52.947583+00:00", "meta": {"OBJECT_NAME": "COSMOS 2251 DEB", "OBJECT_ID": "1993-036YP", "EPOCH": "2025-12-08T23:44:20.442336", "MEAN_MOTION": 13.96821392, "ECCENTRICITY": 0.02238657, "INCLINATION": 73.9235, "RA_OF_ASC_NODE": 332.7561, "ARG_OF_PERICENTER": 272.3834, "MEAN_ANOMALY": 118.8256, "EPHEMERIS_TYPE": 0, "CLASSIFICATION_TYPE": "U", "NORAD_CAT_ID": 34721, "ELEMENT_SET_NO": 999, "REV_AT_EPOCH": 85097, "BSTAR": 0.0019617403, "MEAN_MOTION_DOT": 3.345e-05, "MEAN_MOTION_DDOT": 0}, "tle": {"line1": "1 34721U 93036YP  25342.98912549  .00003345  00000+0  19617-2 0  9991", "line2": "2 34721  73.9235 332.7561 0223865 272.3834 118.8256 13.96821392850974"}}, "geometry": {"type": "Point", "coordinates": [118.11491350947911, 61.02455814018776]}}, {"type": "Feature", "properties": {"norad_id": 34722, "name": "COSMOS 2251 DEB", "group": "cosmos-2251-debris", "lat": -55.300353229192275, "lon": -175.89438890240444, "alt_km": 750.8196783745407, "timestamp": "2025-12-10T20:49:52.947593+00:00", "meta": {"OBJECT_NAME": "COSMOS 2251 DEB", "OBJECT_ID": "1993-036YQ", "EPOCH": "2025-12-10T10:13:03.656064", "MEAN_MOTION": 14.11922799, "ECCENTRICITY": 0.01672454, "INCLINATION": 73.873, "RA_OF_ASC_NODE": 340.1951, "ARG_OF_PERICENTER": 266.1599, "MEAN_ANOMALY": 246.4916, "EPHEMERIS_TYPE": 0, "CLASSIFICATION_TYPE": "U", "NORAD_CAT_ID": 34722, "ELEMENT_SET_NO": 999, "REV_AT_EPOCH": 86212, "BSTAR": 0.0012604749, "MEAN_MOTION_DOT": 2.602e-05, "MEAN_MOTION_DDOT": 0}, "tle": {"line1": "1 34722U 93036YQ  25344.42573676  .00002602  00000+0  12605-2 0  9992", "line2": "2 34722  73.8730 340.1951 0167245 266.1599 246.4916 14.11922799862120"}}, "geometry": {"type": "Point", "coordinates": [-175.89438890240444, -55.300353229192275]}}, {"type": "Feature", "properties": {"norad_id": 34726, "name": "COSMOS 2251 DEB", "group": "cosmos-2251-debris", "lat": -49.422579420432555, "lon": -29.641092766220023, "alt_km": 730.3670067121893, "timestamp": "2025-12-10T20:49:52.947603+00:00", "meta": {"OBJECT_NAME": "COSMOS 2251 DEB", "OBJECT_ID": "1993-036YU", "EPOCH": "2025-12-10T02:58:32.457792", "MEAN_MOTION": 14.59465527, "ECCENTRICITY": 0.00420967, "INCLINATION": 74.0291, "RA_OF_ASC_NODE": 351.3133, "ARG_OF_PERICENTER": 142.9873, "MEAN_ANOMALY": 217.421, "EPHEMERIS_TYPE": 0, "CLASSIFICATION_TYPE": "U", "NORAD_CAT_ID": 34726, "ELEMENT_SET_NO": 999, "REV_AT_EPOCH": 88464, "BSTAR": 0.00055032613, "MEAN_MOTION_DOT": 2.613e-05, "MEAN_MOTION_DDOT": 0}, "tle": {"line1": "1 34726U 93036YU  25344.12398678  .00002613  00000+0  55033-3 0  9995", "line2": "2 34726  74.0291 351.3133 0042096 142.9873 217.4210 14.59465527884646"}}, "geometry": {"type": "Point", "coordinates": [-29.641092766220023, -49.422579420432555]}}, {"type": "Feature", "properties": {"norad_id": 34728, "name": "COSMOS 2251 DEB", "group": "cosmos-2251-debris", "lat": 64.78307988296116, "lon": 37.9189709709046, "alt_km": 635.6421424469963, "timestamp": "2025-12-10T20:49:52.947613+00:00", "meta": {"OBJECT_NAME": "COSMOS 2251 DEB", "OBJECT_ID": "1993-036YW", "EPOCH": "2025-12-09T11:41:21.069888", "MEAN_MOTION": 14.70794927, "ECCENTRICITY": 0.00409671, "INCLINATION": 74.0171, "RA_OF_ASC_NODE": 258.0914, "ARG_OF_PERICENTER": 56.6298, "MEAN_ANOMALY": 303.8783, "EPHEMERIS_TYPE": 0, "CLASSIFICATION_TYPE": "U", "NORAD_CAT_ID": 34728, "ELEMENT_SET_NO": 999, "REV_AT_EPOCH": 88752, "BSTAR": 0.0012390282, "MEAN_MOTION_DOT": 7.642e-05, "MEAN_MOTION_DDOT": 0}, "tle": {"line1": "1 34728U 93036YW  25343.48704942  .00007642  00000+0  12390-2 0  9995", "line2": "2 34728  74.0171 258.0914 0040967  56.6298 303.8783 14.70794927887529"}}, "geometry": {"type": "Point", "coordinates": [37.9189709709046, 64.78307988296116]}}, {"type": "Feature", "properties": {"norad_id": 34729, "name": "COSMOS 2251 DEB", "group": "cosmos-2251-debris", "lat": 40.4201589872018, "lon": 16.265289854605737, "alt_km": 615.8390855925973, "timestamp": "2025-12-10T20:49:52.947623+00:00", "meta": {"OBJECT_NAME": "COSMOS 2251 DEB", "OBJECT_ID": "1993-036YX", "EPOCH": "2025-12-10T11:28:41.106720", "MEAN_MOTION": 14.82688425, "ECCENTRICITY": 0.00118779, "INCLINATION": 74.0182, "RA_OF_ASC_NODE": 2.9089, "ARG_OF_PERICENTER": 123.3665, "MEAN_ANOMALY": 359.9211, "EPHEMERIS_TYPE": 0, "CLASSIFICATION_TYPE": "U", "NORAD_CAT_ID": 34729, "ELEMENT_SET_NO": 999, "REV_AT_EPOCH": 88424, "BSTAR": 0.0026907462, "MEAN_MOTION_DOT": 0.0002177, "MEAN_MOTION_DDOT": 0}, "tle": {"line1": "1 34729U 93036YX  25344.47825355  .00021770  00000+0  26907-2 0  9995", "line2": "2 34729  74.0182   2.9089 0011877 123.3665 359.9211 14.82688425884241"}}, "geometry": {"type": "Point", "coordinates": [16.265289854605737, 40.4201589872018]}}, {"type": "Feature", "properties": {"norad_id": 34732, "name": "COSMOS 2251 DEB", "group": "cosmos-2251-debris", "lat": 31.600421351112562, "lon": -93.45315768377917, "alt_km": 737.7874902290132, "timestamp": "2025-12-10T20:49:52.947632+00:00", "meta": {"OBJECT_NAME": "COSMOS 2251 DEB", "OBJECT_ID": "1993-036ZA", "EPOCH": "2025-12-10T07:00:38.330784", "MEAN_MOTION": 14.47296381, "ECCENTRICITY": 0.0040439, "INCLINATION": 74.0451, "RA_OF_ASC_NODE": 97.7594, "ARG_OF_PERICENTER": 249.2333, "MEAN_ANOMALY": 138.9201, "EPHEMERIS_TYPE": 0, "CLASSIFICATION_TYPE": "U", "NORAD_CAT_ID": 34732, "ELEMENT_SET_NO": 999, "REV_AT_EPOCH": 88108, "BSTAR": 0.00026368, "MEAN_MOTION_DOT": 9.47e-06, "MEAN_MOTION_DDOT": 0}, "tle": {"line1": "1 34732U 93036ZA  25344.29211031  .00000947  00000+0  26368-3 0  9994", "line2": "2 34732  74.0451  97.7594 0040439 249.2333 138.9201 14.47296381881083"}}, "geometry": {"type": "Point", "coordinates": [-93.45315768377917, 31.600421351112562]}}]}